ELYSIUM STAR 2 & LFF    
1 43760U 18099C   24194.90692098  .00045139  00000+0  16350-2 0  9998
2 43760  97.5147 262.6921 0007435 174.7521 185.3798 15.28217319307166
